NORAD_CAT_ID,OBJECT_NAME,OBJECT_TYPE,EPOCH,MEAN_MOTION,ECCENTRICITY,INCLINATION,RA_OF_ASC_NODE,ARG_OF_PERICENTER,MEAN_ANOMALY,BSTAR,MEAN_MOTION_DOT,MEAN_MOTION_DDOT,TLE_LINE0,TLE_LINE1,TLE_LINE2,SEMIMAJOR_AXIS,PERIOD,APOGEE,PERIGEE,DECAYED
53638.0,STARLINK-4594,PAYLOAD,2024-04-24 06:02:39,15.0885776,0.0001342,53.2188,56.3048,102.7828,257.3314,-0.00014713,-2.63e-05,0.0,0 STARLINK-4594,1 53638U 22104BC  24115.25184183 -.00002630  00000-0 -14713-3 0  9991,2 53638  53.2188  56.3048 0001342 102.7828 257.3314 15.08857760 91886,6917.826,95.436,540.619,538.763,0.0
53638.0,STARLINK-4594,PAYLOAD,2024-04-25 02:42:40,15.08829415,0.0001283,53.219,52.4399,101.873,258.2407,9.6859e-05,1.254e-05,0.0,0 STARLINK-4594,1 53638U 22104BC  24116.11297250  .00001254  00000-0  96859-4 0  9998,2 53638  53.2190  52.4399 0001283 101.8730 258.2407 15.08829415 92016,6917.913,95.438,540.665,538.89,0.0
53638.0,STARLINK-4594,PAYLOAD,2024-04-26 02:33:27,15.08840526,0.0001212,53.2192,47.9789,103.2084,256.9043,4.6128e-05,4.46e-06,0.0,0 STARLINK-4594,1 53638U 22104BC  24117.10657073  .00000446  00000-0  46128-4 0  9997,2 53638  53.2192  47.9789 0001212 103.2084 256.9043 15.08840526 92163,6917.879,95.438,540.582,538.905,0.0
53638.0,STARLINK-4594,PAYLOAD,2024-04-26 12:05:45,15.0885951,0.0001512,53.2192,46.2057,75.1504,284.9656,4.5325e-05,4.34e-06,0.0,0 STARLINK-4594,1 53638U 22104BC  24117.50399687  .00000434  00000-0  45325-4 0  9990,2 53638  53.2192  46.2057 0001512  75.1504 284.9656 15.08859510 92221,6917.821,95.436,540.732,538.64,0.0
53638.0,STARLINK-4594,PAYLOAD,2024-04-27 03:59:37,15.08848667,0.0001262,53.2187,43.2268,115.7407,244.3716,0.0001997,2.893e-05,0.0,0 STARLINK-4594,1 53638U 22104BC  24118.16640243  .00002893  00000-0  19970-3 0  9997,2 53638  53.2187  43.2268 0001262 115.7407 244.3716 15.08848667 92320,6917.854,95.437,540.592,538.846,0.0
53638.0,STARLINK-4594,PAYLOAD,2024-04-27 11:56:31,15.0886029,0.0001395,53.2192,41.7425,79.2929,280.822,0.00028351,4.229e-05,0.0,0 STARLINK-4594,1 53638U 22104BC  24118.49759132  .00004229  00000-0  28351-3 0  9999,2 53638  53.2192  41.7425 0001395  79.2929 280.8220 15.08860290 92370,6917.818,95.436,540.648,538.718,0.0
53638.0,STARLINK-4594,PAYLOAD,2024-04-28 03:50:25,15.08836796,8.43e-05,53.2176,38.7693,81.4825,278.6262,-9.9705e-05,-1.874e-05,0.0,0 STARLINK-4594,1 53638U 22104BC  24119.16001939 -.00001874  00000-0 -99705-4 0  9996,2 53638  53.2176  38.7693 0000843  81.4825 278.6262 15.08836796 92478,6917.89,95.438,540.338,539.172,0.0
53638.0,STARLINK-4594,PAYLOAD,2024-04-28 11:47:21,15.08842779,0.0001474,53.2182,37.2832,76.8,283.3156,-5.6654e-05,-1.19e-05,0.0,0 STARLINK-4594,1 53638U 22104BC  24119.49121618 -.00001190  00000-0 -56654-4 0  9996,2 53638  53.2182  37.2832 0001474  76.8000 283.3156 15.08842779 92527,6917.872,95.437,540.757,538.717,0.0
53638.0,STARLINK-4594,PAYLOAD,2024-04-28 22:55:03,15.08833933,0.0001475,53.2176,35.2014,81.2339,278.882,0.00018291,2.624e-05,0.0,0 STARLINK-4594,1 53638U 22104BC  24119.95489808  .00002624  00000-0  18291-3 0  9990,2 53638  53.2176  35.2014 0001475  81.2339 278.8820 15.08833933 93616,6917.899,95.438,540.784,538.744,0.0
53638.0,STARLINK-4594,PAYLOAD,2024-04-29 11:38:07,15.08849853,0.000122,53.2171,32.8187,83.5317,276.5814,0.00035243,5.327e-05,0.0,0 STARLINK-4594,1 53638U 22104BC  24120.48481056  .00005327  00000-0  35243-3 0  9996,2 53638  53.2171  32.8187 0001220  83.5317 276.5814 15.08849853 93698,6917.85,95.437,540.559,538.871,0.0
53638.0,STARLINK-4594,PAYLOAD,2024-04-30 03:31:59,15.08840674,0.0001435,53.2184,29.8448,79.5766,280.5388,0.00017154,2.443e-05,0.0,0 STARLINK-4594,1 53638U 22104BC  24121.14721671  .00002443  00000-0  17154-3 0  9997,2 53638  53.2184  29.8448 0001435  79.5766 280.5388 15.08840674 92770,6917.878,95.438,540.736,538.751,0.0
53638.0,STARLINK-4594,PAYLOAD,2024-04-30 11:28:54,15.08848813,0.0001501,53.2188,28.3594,77.6498,282.4662,0.00026607,3.95e-05,0.0,0 STARLINK-4594,1 53638U 22104BC  24121.47841360  .00003950  00000-0  26607-3 0  9998,2 53638  53.2188  28.3594 0001501  77.6498 282.4662 15.08848813 93843,6917.853,95.437,540.757,538.68,0.0
53638.0,STARLINK-4594,PAYLOAD,2024-04-30 22:36:37,15.08841785,0.0001682,53.2199,26.2776,86.4776,273.6409,0.00010585,1.397e-05,0.0,0 STARLINK-4594,1 53638U 22104BC  24121.94209789  .00001397  00000-0  10585-3 0  9994,2 53638  53.2199  26.2776 0001682  86.4776 273.6409 15.08841785 93911,6917.875,95.437,540.904,538.576,0.0
53638.0,STARLINK-4594,PAYLOAD,2024-05-01 03:22:46,15.0884582,0.0001644,53.2177,25.386,86.2602,273.8578,4.9433e-05,4.99e-06,0.0,0 STARLINK-4594,1 53638U 22104BC  24122.14081519  .00000499  00000-0  49433-4 0  9993,2 53638  53.2177  25.3860 0001644  86.2602 273.8578 15.08845820 93941,6917.863,95.437,540.865,538.59,0.0
53638.0,STARLINK-4594,PAYLOAD,2024-05-02 00:02:46,15.08849506,0.0001675,53.2189,21.5191,87.6356,272.4828,0.00023761,3.497e-05,0.0,0 STARLINK-4594,1 53638U 22104BC  24123.00193054  .00003497  00000-0  23761-3 0  9993,2 53638  53.2189  21.5191 0001675  87.6356 272.4828 15.08849506 93054,6917.851,95.437,540.875,538.558,0.0
53638.0,STARLINK-4594,PAYLOAD,2024-05-02 20:42:45,15.08878018,0.0001861,53.2188,17.6528,79.0232,281.097,-0.0011109,-0.00017943,0.0,0 STARLINK-4594,1 53638U 22104BC  24123.86302820 -.00017943  00000-0 -11109-2 0  9995,2 53638  53.2188  17.6528 0001861  79.0232 281.0970 15.08878018 93186,6917.764,95.435,540.917,538.342,0.0
53638.0,STARLINK-4594,PAYLOAD,2024-05-03 04:39:42,15.08853391,0.0001292,53.2178,16.1685,84.9291,275.1849,0.00018848,2.714e-05,0.0,0 STARLINK-4594,1 53638U 22104BC  24124.19424453  .00002714  00000-0  18848-3 0  9995,2 53638  53.2178  16.1685 0001292  84.9291 275.1849 15.08853391 93233,6917.839,95.437,540.598,538.811,0.0
53638.0,STARLINK-4594,PAYLOAD,2024-05-03 12:36:39,15.08814521,0.0001299,53.2177,14.6823,93.5492,266.5648,-0.00040057,-6.653e-05,0.0,0 STARLINK-4594,1 53638U 22104BC  24124.52546164 -.00006653  00000-0 -40057-3 0  9991,2 53638  53.2177  14.6823 0001299  93.5492 266.5648 15.08814521 93283,6917.958,95.439,540.722,538.925,0.0
53638.0,STARLINK-4594,PAYLOAD,2024-05-03 14:12:03,15.08814538,0.0001336,53.2177,14.3844,94.0735,266.041,-0.00039779,-6.609e-05,0.0,0 STARLINK-4594,1 53638U 22104BC  24124.59170216 -.00006609  00000-0 -39779-3 0  9999,2 53638  53.2177  14.3844 0001336  94.0735 266.0410 15.08814538 94316,6917.958,95.439,540.747,538.899,0.0
53638.0,STARLINK-4594,PAYLOAD,2024-05-03 22:08:59,15.08815992,0.0001274,53.2178,12.8977,95.8132,264.3006,-0.00023029,-3.949e-05,0.0,0 STARLINK-4594,1 53638U 22104BC  24124.92290537 -.00003949  00000-0 -23029-3 0  9990,2 53638  53.2178  12.8977 0001274  95.8132 264.3006 15.08815992 94360,6917.954,95.439,540.7,538.937,0.0
53638.0,STARLINK-4594,PAYLOAD,2024-05-04 04:30:31,15.08820404,0.0001279,53.2178,11.7084,96.9296,263.1841,-0.00020067,-3.478e-05,0.0,0 STARLINK-4594,1 53638U 22104BC  24125.18786399 -.00003478  00000-0 -20067-3 0  9991,2 53638  53.2178  11.7084 0001279  96.9296 263.1841 15.08820404 93384,6917.94,95.439,540.69,538.92,0.0
53638.0,STARLINK-4594,PAYLOAD,2024-05-04 20:24:23,15.08837263,0.0001211,53.2176,8.7353,107.0352,253.0772,0.0014524,0.00022901,0.0,0 STARLINK-4594,1 53638U 22104BC  24125.85027120  .00022901  00000-0  14524-2 0  9995,2 53638  53.2176   8.7353 0001211 107.0352 253.0772 15.08837263 93483,6917.889,95.438,540.592,538.916,0.0
53638.0,STARLINK-4594,PAYLOAD,2024-05-05 13:53:37,15.08857875,0.0001209,53.2174,5.4641,109.0405,251.0718,0.0010453,0.00016395,0.0,0 STARLINK-4594,1 53638U 22104BC  24126.57890702  .00016395  00000-0  10453-2 0  9996,2 53638  53.2174   5.4641 0001209 109.0405 251.0718 15.08857875 94618,6917.826,95.436,540.527,538.854,0.0
53638.0,STARLINK-4594,PAYLOAD,2024-05-05 20:15:09,15.08863777,0.0001197,53.2174,4.2748,108.3099,251.8024,0.00095059,0.00014883,0.0,0 STARLINK-4594,1 53638U 22104BC  24126.84386360  .00014883  00000-0  95059-3 0  9992,2 53638  53.2174   4.2748 0001197 108.3099 251.8024 15.08863777 93637,6917.808,95.436,540.501,538.845,0.0
53638.0,STARLINK-4594,PAYLOAD,2024-05-05 21:50:32,15.08865924,0.0001194,53.2174,3.9775,108.4142,251.698,0.00096823,0.00015166,0.0,0 STARLINK-4594,1 53638U 22104BC  24126.91010247  .00015166  00000-0  96823-3 0  9993,2 53638  53.2174   3.9775 0001194 108.4142 251.6980 15.08865924 94669,6917.801,95.436,540.492,538.84,0.0
53638.0,STARLINK-4594,PAYLOAD,2024-05-06 12:09:00,15.08852086,0.0001094,53.2172,1.3012,96.8666,263.2451,-9.5588e-05,-1.809e-05,0.0,0 STARLINK-4594,1 53638U 22104BC  24127.50625545 -.00001809  00000-0 -95588-4 0  9991,2 53638  53.2172   1.3012 0001094  96.8666 263.2451 15.08852086 93737,6917.843,95.437,540.465,538.952,0.0
53638.0,STARLINK-4594,PAYLOAD,2024-05-06 13:44:23,15.0885279,0.0001104,53.2171,1.0039,97.2345,262.8772,-4.7943e-05,-1.051e-05,0.0,0 STARLINK-4594,1 53638U 22104BC  24127.57249483 -.00001051  00000-0 -47943-4 0  9992,2 53638  53.2171   1.0039 0001104  97.2345 262.8772 15.08852790 94760,6917.841,95.437,540.47,538.943,0.0
53638.0,STARLINK-4594,PAYLOAD,2024-05-06 21:41:18,15.08858807,0.0001083,53.2171,359.517,93.066,267.0456,0.00037801,5.736e-05,0.0,0 STARLINK-4594,1 53638U 22104BC  24127.90369197  .00005736  00000-0  37801-3 0  9997,2 53638  53.2171 359.5170 0001083  93.0660 267.0456 15.08858807 94814,6917.823,95.436,540.437,538.939,0.0
53638.0,STARLINK-4594,PAYLOAD,2024-05-07 11:59:47,15.08831001,0.0001063,53.2171,356.8407,80.579,279.5322,-0.00038629,-6.429e-05,0.0,0 STARLINK-4594,1 53638U 22104BC  24128.49985356 -.00006429  00000-0 -38629-3 0  9994,2 53638  53.2171 356.8407 0001063  80.5790 279.5322 15.08831001 93883,6917.908,95.438,540.508,539.038,0.0
53638.0,STARLINK-4594,PAYLOAD,2024-05-07 15:10:33,15.08830399,0.0001074,53.217,356.2459,81.2919,278.8195,-0.000262,-4.454e-05,0.0,0 STARLINK-4594,1 53638U 22104BC  24128.63233444 -.00004454  00000-0 -26200-3 0  9992,2 53638  53.2170 356.2459 0001074  81.2919 278.8195 15.08830399 94921,6917.91,95.438,540.518,539.032,0.0
